{"type": "FeatureCollection", "features": [ {"type": "Feature", "properties": {"norad_id": 31210, "name": "FENGYUN 1C DEB", "group": "fengyun-1c-debris", "lat": 34.18531390813038, "lon": -7.551524385091534, "alt_km": 850.1875023774119, "timestamp": "2025-12-23T16:57:12.633780+00:00", "meta": {"OBJECT_NAME": "FENGYUN 1C DEB", "OBJECT_ID": "1999-025BKQ", "EPOCH": "2025-12-20T05:44:41.256096", "MEAN_MOTION": 14.12005396, "ECCENTRICITY": 0.0017465, "INCLINATION": 98.7185, "RA_OF_ASC_NODE": 355.0606, "ARG_OF_PERICENTER": 134.4184, "MEAN_ANOMALY": 286.6721, "EPHEMERIS_TYPE": 0, "CLASSIFICATION_TYPE": "U", "NORAD_CAT_ID": 31210, "ELEMENT_SET_NO": 999, "REV_AT_EPOCH": 96073, "BSTAR": 0.00028459, "MEAN_MOTION_DOT": 4.79e-06, "MEAN_MOTION_DDOT": 0}, "tle": {"line1": "1 31210U 99025BKQ 25354.23936639  .00000479  00000+0  28459-3 0  9992", "line2": "2 31210  98.7185 355.0606 0017465 134.4184 286.6721 14.12005396960738"}}, "geometry": {"type": "Point", "coordinates": [-7.551524385091534, 34.18531390813038]}}, {"type": "Feature", "properties": {"norad_id": 31211, "name": "FENGYUN 1C DEB", "group": "fengyun-1c-debris", "lat": 36.521466578830555, "lon": -140.11295164962362, "alt_km": 819.0421229831991, "timestamp": "2025-12-23T16:57:12.633790+00:00", "meta": {"OBJECT_NAME": "FENGYUN 1C DEB", "OBJECT_ID": "1999-025BKR", "EPOCH": "2025-12-22T19:59:46.021056", "MEAN_MOTION": 14.20094058, "ECCENTRICITY": 0.0050213, "INCLINATION": 98.6718, "RA_OF_ASC_NODE": 32.542, "ARG_OF_PERICENTER": 60.4625, "MEAN_ANOMALY": 300.1545, "EPHEMERIS_TYPE": 0, "CLASSIFICATION_TYPE": "U", "NORAD_CAT_ID": 31211, "ELEMENT_SET_NO": 999, "REV_AT_EPOCH": 63436, "BSTAR": 0.00098818, "MEAN_MOTION_DOT": 2.09e-05, "MEAN_MOTION_DDOT": 0}, "tle": {"line1": "1 31211U 99025BKR 25356.83317154  .00002090  00000+0  98818-3 0  9993", "line2": "2 31211  98.6718  32.5420 0050213  60.4625 300.1545 14.20094058634362"}}, "geometry": {"type": "Point", "coordinates": [-140.11295164962362, 36.521466578830555]}}, {"type": "Feature", "properties": {"norad_id": 31212, "name": "FENGYUN 1C DEB", "group": "fengyun-1c-debris", "lat": -28.83613686051156, "lon": -155.6334445288111, "alt_km": 833.4528718385873, "timestamp": "2025-12-23T16:57:12.633800+00:00", "meta": {"OBJECT_NAME": "FENGYUN 1C DEB", "OBJECT_ID": "1999-025BKS", "EPOCH": "2025-12-14T12:45:56.653344", "MEAN_MOTION": 14.13124373, "ECCENTRICITY": 0.00752745, "INCLINATION": 99.2196, "RA_OF_ASC_NODE": 20.0508, "ARG_OF_PERICENTER": 167.0098, "MEAN_ANOMALY": 193.3035, "EPHEMERIS_TYPE": 0, "CLASSIFICATION_TYPE": "U", "NORAD_CAT_ID": 31212, "ELEMENT_SET_NO": 999, "REV_AT_EPOCH": 95684, "BSTAR": 0.0014706798, "MEAN_MOTION_DOT": 2.778e-05, "MEAN_MOTION_DDOT": 0}, "tle": {"line1": "1 31212U 99025BKS 25348.53190571  .00002778  00000+0  14707-2 0  9991", "line2": "2 31212  99.2196  20.0508 0075274 167.0098 193.3035 14.13124373956843"}}, "geometry": {"type": "Point", "coordinates": [-155.6334445288111, -28.83613686051156]}}, {"type": "Feature", "properties": {"norad_id": 31215, "name": "FENGYUN 1C DEB", "group": "fengyun-1c-debris", "lat": -72.88841759657646, "lon": -126.44562214035997, "alt_km": 736.7013595894186, "timestamp": "2025-12-23T16:57:12.633810+00:00", "meta": {"OBJECT_NAME": "FENGYUN 1C DEB", "OBJECT_ID": "1999-025BKV", "EPOCH": "2025-12-22T19:31:44.040288", "MEAN_MOTION": 14.33836457, "ECCENTRICITY": 0.00697713, "INCLINATION": 99.0703, "RA_OF_ASC_NODE": 201.3612, "ARG_OF_PERICENTER": 295.0037, "MEAN_ANOMALY": 64.3912, "EPHEMERIS_TYPE": 0, "CLASSIFICATION_TYPE": "U", "NORAD_CAT_ID": 31215, "ELEMENT_SET_NO": 999, "REV_AT_EPOCH": 96670, "BSTAR": 0.00093772468, "MEAN_MOTION_DOT": 2.633e-05, "MEAN_MOTION_DDOT": 0}, "tle": {"line1": "1 31215U 99025BKV 25356.81370417  .00002633  00000+0  93772-3 0  9993", "line2": "2 31215  99.0703 201.3612 0069771 295.0037  64.3912 14.33836457966700"}}, "geometry": {"type": "Point", "coordinates": [-126.44562214035997, -72.88841759657646]}}, {"type": "Feature", "properties": {"norad_id": 31217, "name": "FENGYUN 1C DEB", "group": "fengyun-1c-debris", "lat": 21.970887752225426, "lon": -171.1908999101245, "alt_km": 769.99392070867, "timestamp": "2025-12-23T16:57:12.633820+00:00", "meta": {"OBJECT_NAME": "FENGYUN 1C DEB", "OBJECT_ID": "1999-025BKX", "EPOCH": "2025-12-23T06:03:17.765280", "MEAN_MOTION": 14.17561207, "ECCENTRICITY": 0.01000611, "INCLINATION": 98.6402, "RA_OF_ASC_NODE": 4.8506, "ARG_OF_PERICENTER": 129.9779, "MEAN_ANOMALY": 231.0236, "EPHEMERIS_TYPE": 0, "CLASSIFICATION_TYPE": "U", "NORAD_CAT_ID": 31217, "ELEMENT_SET_NO": 999, "REV_AT_EPOCH": 96497, "BSTAR": 0.00047949194, "MEAN_MOTION_DOT": 9.81e-06, "MEAN_MOTION_DDOT": 0}, "tle": {"line1": "1 31217U 99025BKX 25357.25228895  .00000981  00000+0  47949-3 0  9995", "line2": "2 31217  98.6402   4.8506 0100061 129.9779 231.0236 14.17561207964976"}}, "geometry": {"type": "Point", "coordinates": [-171.1908999101245, 21.970887752225426]}}, {"type": "Feature", "properties": {"norad_id": 31218, "name": "FENGYUN 1C DEB", "group": "fengyun-1c-debris", "lat": 68.5509239213103, "lon": 85.50881227508725, "alt_km": 642.8599500820101, "timestamp": "2025-12-23T16:57:12.633832+00:00", "meta": {"OBJECT_NAME": "FENGYUN 1C DEB", "OBJECT_ID": "1999-025BKY", "EPOCH": "2025-12-22T12:55:13.212768", "MEAN_MOTION": 14.7294005, "ECCENTRICITY": 0.00117858, "INCLINATION": 98.8396, "RA_OF_ASC_NODE": 107.5728, "ARG_OF_PERICENTER": 357.51, "MEAN_ANOMALY": 2.6044, "EPHEMERIS_TYPE": 0, "CLASSIFICATION_TYPE": "U", "NORAD_CAT_ID": 31218, "ELEMENT_SET_NO": 999, "REV_AT_EPOCH": 97227, "BSTAR": 0.0045886009, "MEAN_MOTION_DOT": 0.00029528, "MEAN_MOTION_DDOT": 0}, "tle": {"line1": "1 31218U 99025BKY 25356.53834737  .00029528  00000+0  45886-2 0  9999", "line2": "2 31218  98.8396 107.5728 0011785 357.5100   2.6044 14.72940050972278"}}, "geometry": {"type": "Point", "coordinates": [85.50881227508725, 68.5509239213103]}}, {"type": "Feature", "properties": {"norad_id": 31219, "name": "FENGYUN 1C DEB", "group": "fengyun-1c-debris", "lat": 51.245816693067425, "lon": -160.26125713045687, "alt_km": 787.167959316982, "timestamp": "2025-12-23T16:57:12.633842+00:00", "meta": {"OBJECT_NAME": "FENGYUN 1C DEB", "OBJECT_ID": "1999-025BKZ", "EPOCH": "2025-12-21T11:42:00.500256", "MEAN_MOTION": 14.13828001, "ECCENTRICITY": 0.00793404, "INCLINATION": 99.2832, "RA_OF_ASC_NODE": 5.679, "ARG_OF_PERICENTER": 152.7688, "MEAN_ANOMALY": 207.7678, "EPHEMERIS_TYPE": 0, "CLASSIFICATION_TYPE": "U", "NORAD_CAT_ID": 31219, "ELEMENT_SET_NO": 999, "REV_AT_EPOCH": 95693, "BSTAR": 0.0010390741, "MEAN_MOTION_DOT": 1.981e-05, "MEAN_MOTION_DDOT": 0}, "tle": {"line1": "1 31219U 99025BKZ 25355.48750579  .00001981  00000+0  10391-2 0  9990", "line2": "2 31219  99.2832   5.6790 0079340 152.7688 207.7678 14.13828001956935"}}, "geometry": {"type": "Point", "coordinates": [-160.26125713045687, 51.245816693067425]}}, {"type": "Feature", "properties": {"norad_id": 31222, "name": "FENGYUN 1C DEB", "group": "fengyun-1c-debris", "lat": 29.33742191017083, "lon": 63.91961783926062, "alt_km": 453.6451857401089, "timestamp": "2025-12-23T16:57:12.633852+00:00", "meta": {"OBJECT_NAME": "FENGYUN 1C DEB", "OBJECT_ID": "1999-025BLC", "EPOCH": "2025-12-23T04:00:02.881728", "MEAN_MOTION": 14.97991492, "ECCENTRICITY": 0.01702236, "INCLINATION": 98.6111, "RA_OF_ASC_NODE": 68.2102, "ARG_OF_PERICENTER": 35.8106, "MEAN_ANOMALY": 325.4386, "EPHEMERIS_TYPE": 0, "CLASSIFICATION_TYPE": "U", "NORAD_CAT_ID": 31222, "ELEMENT_SET_NO": 999, "REV_AT_EPOCH": 139, "BSTAR": 0.00061762723, "MEAN_MOTION_DOT": 9.772e-05, "MEAN_MOTION_DDOT": 0}, "tle": {"line1": "1 31222U 99025BLC 25357.16670002  .00009772  00000+0  61763-3 0  9999", "line2": "2 31222  98.6111  68.2102 0170223  35.8106 325.4386 14.97991492  1394"}}, "geometry": {"type": "Point", "coordinates": [63.91961783926062, 29.33742191017083]}}, {"type": "Feature", "properties": {"norad_id": 31223, "name": "FENGYUN 1C DEB", "group": "fengyun-1c-debris", "lat": 63.722280165800214, "lon": -135.27897413201734, "alt_km": 857.3325859634897, "timestamp": "2025-12-23T16:57:12.633863+00:00", "meta": {"OBJECT_NAME": "FENGYUN 1C DEB", "OBJECT_ID": "1999-025BLD", "EPOCH": "2025-12-20T15:25:38.218944", "MEAN_MOTION": 13.77291138, "ECCENTRICITY": 0.02440292, "INCLINATION": 99.0064, "RA_OF_ASC_NODE": 240.5512, "ARG_OF_PERICENTER": 20.0497, "MEAN_ANOMALY": 341.0043, "EPHEMERIS_TYPE": 0, "CLASSIFICATION_TYPE": "U", "NORAD_CAT_ID": 31223, "ELEMENT_SET_NO": 999, "REV_AT_EPOCH": 92837, "BSTAR": 0.0020350073, "MEAN_MOTION_DOT": 2.475e-05, "MEAN_MOTION_DDOT": 0}, "tle": {"line1": "1 31223U 99025BLD 25354.64280346  .00002475  00000+0  20350-2 0  9997", "line2": "2 31223  99.0064 240.5512 0244029  20.0497 341.0043 13.77291138928379"}}, "geometry": {"type": "Point", "coordinates": [-135.27897413201734, 63.722280165800214]}}, {"type": "Feature", "properties": {"norad_id": 31224, "name": "FENGYUN 1C DEB", "group": "fengyun-1c-debris", "lat": 30.679948199539876, "lon": 174.17668573477198, "alt_km": 685.5630468446943, "timestamp": "2025-12-23T16:57:12.633873+00:00", "meta": {"OBJECT_NAME": "FENGYUN 1C DEB", "OBJECT_ID": "1999-025BLE", "EPOCH": "2025-12-21T18:01:36.152832", "MEAN_MOTION": 14.28909208, "ECCENTRICITY": 0.01584909, "INCLINATION": 98.3705, "RA_OF_ASC_NODE": 347.2876, "ARG_OF_PERICENTER": 136.314, "MEAN_ANOMALY": 39.6223, "EPHEMERIS_TYPE": 0, "CLASSIFICATION_TYPE": "U", "NORAD_CAT_ID": 31224, "ELEMENT_SET_NO": 999, "REV_AT_EPOCH": 69379, "BSTAR": 0.00021705692, "MEAN_MOTION_DOT": 5.84e-06, "MEAN_MOTION_DDOT": 0}, "tle": {"line1": "1 31224U 99025BLE 25355.75111288  .00000584  00000+0  21706-3 0  9995", "line2": "2 31224  98.3705 347.2876 0158490 136.3140  39.6223 14.28909208693790"}}, "geometry": {"type": "Point", "coordinates": [174.17668573477198, 30.679948199539876]}}]}